NORAD_CAT_ID,OBJECT_NAME,OBJECT_TYPE,EPOCH,MEAN_MOTION,ECCENTRICITY,INCLINATION,RA_OF_ASC_NODE,ARG_OF_PERICENTER,MEAN_ANOMALY,BSTAR,MEAN_MOTION_DOT,MEAN_MOTION_DDOT,TLE_LINE0,TLE_LINE1,TLE_LINE2,SEMIMAJOR_AXIS,PERIOD,APOGEE,PERIGEE,DECAYED
52699.0,STARLINK-3987,PAYLOAD,2022-12-01 17:24:39,15.08843052,0.0002747,53.2168,99.0255,45.2301,314.8915,0.00016333,2.312e-05,0.0,0 STARLINK-3987,1 52699U 22053AV  22335.72545711  .00002312  00000-0  16333-3 0  9997,2 52699  53.2168  99.0255 0002747  45.2301 314.8915 15.08843052 30564,6917.871,95.437,541.636,537.836,0.0
52699.0,STARLINK-3987,PAYLOAD,2022-12-02 01:21:35,15.08837345,0.0002713,53.2167,97.5388,44.2642,315.8566,-0.00010833,-2.012e-05,0.0,0 STARLINK-3987,1 52699U 22053AV  22336.05666023 -.00002012  00000-0 -10833-3 0  9992,2 52699  53.2167  97.5388 0002713  44.2642 315.8566 15.08837345 30610,6917.889,95.438,541.63,537.877,0.0
52699.0,STARLINK-3987,PAYLOAD,2022-12-02 09:18:31,15.08831794,0.0002676,53.2167,96.0512,42.2063,317.9134,4.1625e-05,3.74e-06,0.0,0 STARLINK-3987,1 52699U 22053AV  22336.38786513  .00000374  00000-0  41625-4 0  9996,2 52699  53.2167  96.0512 0002676  42.2063 317.9134 15.08831794 31095,6917.905,95.438,541.622,537.919,0.0
52699.0,STARLINK-3987,PAYLOAD,2022-12-03 01:12:23,15.08820024,0.0002565,53.2163,93.0779,40.7577,319.3606,-0.0001367,-2.462e-05,0.0,0 STARLINK-3987,1 52699U 22053AV  22337.05027743 -.00002462  00000-0 -13670-3 0  9994,2 52699  53.2163  93.0779 0002565  40.7577 319.3606 15.08820024 30760,6917.941,95.439,541.581,538.0319999999998,0.0
52699.0,STARLINK-3987,PAYLOAD,2022-12-03 07:33:56,15.08832317,0.0002207,53.2179,91.8891,33.9105,326.2028,-3.4769e-06,-3.44e-06,0.0,0 STARLINK-3987,1 52699U 22053AV  22337.31523615 -.00000344  00000-0 -34769-5 0  9993,2 52699  53.2179  91.8891 0002207  33.9105 326.2028 15.08832317 30800,6917.904,95.438,541.2959999999998,538.242,0.0
52699.0,STARLINK-3987,PAYLOAD,2022-12-03 12:20:05,15.08839239,0.000265,53.2172,90.9979,36.4428,323.6744,0.00012105,1.639e-05,0.0,0 STARLINK-3987,1 52699U 22053AV  22337.51395032  .00001639  00000-0  12105-3 0  9999,2 52699  53.2172  90.9979 0002650  36.4428 323.6744 15.08839239 31265,6917.8830000000025,95.438,541.581,537.914,0.0
52699.0,STARLINK-3987,PAYLOAD,2022-12-03 17:06:14,15.08844844,0.0002656,53.2164,90.1052,38.3227,321.7954,0.00036872,5.586e-05,0.0,0 STARLINK-3987,1 52699U 22053AV  22337.71267077  .00005586  00000-0  36872-3 0  9990,2 52699  53.2164  90.1052 0002656  38.3227 321.7954 15.08844844 30869,6917.866,95.437,541.568,537.893,0.0
52699.0,STARLINK-3987,PAYLOAD,2022-12-04 13:46:15,15.08853216,0.0002615,53.2165,86.2389,39.0829,321.0352,0.00043704,6.677e-05,0.0,0 STARLINK-3987,1 52699U 22053AV  22338.57378920  .00006677  00000-0  43704-3 0  9999,2 52699  53.2165  86.2389 0002615  39.0829 321.0352 15.08853216 31421,6917.84,95.437,541.514,537.896,0.0
52699.0,STARLINK-3987,PAYLOAD,2022-12-04 18:32:24,15.088591699999998,0.0002581,53.2164,85.3466,39.3425,320.7755,0.00050109,7.7e-05,0.0,0 STARLINK-3987,1 52699U 22053AV  22338.77250574  .00007700  00000-0  50109-3 0  9990,2 52699  53.2164  85.3466 0002581  39.3425 320.7755 15.08859170 31454,6917.821999999999,95.436,541.472,537.901,0.0
52699.0,STARLINK-3987,PAYLOAD,2022-12-05 00:53:56,15.08857576,0.0002581,53.2168,84.1569,39.0951,321.0227,0.00031913,4.797e-05,0.0,0 STARLINK-3987,1 52699U 22053AV  22339.03746347  .00004797  00000-0  31913-3 0  9993,2 52699  53.2168  84.1569 0002581  39.0951 321.0227 15.08857576 31063,6917.8269999999975,95.436,541.477,537.906,0.0
52699.0,STARLINK-3987,PAYLOAD,2022-12-05 13:37:01,15.08853219,0.0002663,53.2175,81.7788,41.2025,318.9168,0.00014752,2.061e-05,0.0,0 STARLINK-3987,1 52699U 22053AV  22339.56738085  .00002061  00000-0  14752-3 0  9995,2 52699  53.2175  81.7788 0002663  41.2025 318.9168 15.08853219 31570,6917.84,95.437,541.547,537.863,0.0
52699.0,STARLINK-3987,PAYLOAD,2022-12-05 18:23:11,15.08848917,0.0002606,53.2173,80.8863,40.8379,319.2808,3.3372e-05,2.43e-06,0.0,0 STARLINK-3987,1 52699U 22053AV  22339.76610083  .00000243  00000-0  33372-4 0  9994,2 52699  53.2173  80.8863 0002606  40.8379 319.2808 15.08848917 31604,6917.853,95.437,541.521,537.915,0.0
52699.0,STARLINK-3987,PAYLOAD,2022-12-06 08:41:38,15.08853149,0.0002681,53.2173,78.2115,35.1957,324.9212,0.00012823,1.754e-05,0.0,0 STARLINK-3987,1 52699U 22053AV  22340.36225401  .00001754  00000-0  12823-3 0  9993,2 52699  53.2173  78.2115 0002681  35.1957 324.9212 15.08853149 31691,6917.84,95.437,541.56,537.851,0.0
52699.0,STARLINK-3987,PAYLOAD,2022-12-06 16:38:35,15.08832519,0.0002691,53.2175,76.7234,34.7661,325.3506,-0.00023237,-3.984e-05,0.0,0 STARLINK-3987,1 52699U 22053AV  22340.69346222 -.00003984  00000-0 -23237-3 0  9994,2 52699  53.2175  76.7234 0002691  34.7661 325.3506 15.08832519 31314,6917.903,95.438,541.63,537.9069999999998,0.0
52699.0,STARLINK-3987,PAYLOAD,2022-12-07 16:29:22,15.08831974,0.0002545,53.2172,72.2641,31.7788,328.3357,-4.9679e-06,-3.67e-06,0.0,0 STARLINK-3987,1 52699U 22053AV  22341.68706910 -.00000367  00000-0 -49679-5 0  9990,2 52699  53.2172  72.2641 0002545  31.7788 328.3357 15.08831974 31893,6917.905,95.438,541.531,538.009,0.0
52699.0,STARLINK-3987,PAYLOAD,2022-12-07 22:50:54,15.08837902,0.0001626999999999,53.2175,71.0749,8.5912,351.5108,9.3496e-06,-1.39e-06,0.0,0 STARLINK-3987,1 52699U 22053AV  22341.95202276 -.00000139  00000-0  93496-5 0  9998,2 52699  53.2175  71.0749 0001627   8.5912 351.5108 15.08837902 31500,6917.887,95.438,540.877,538.626,0.0
52699.0,STARLINK-3987,PAYLOAD,2022-12-08 13:09:24,15.08804567,0.00025,53.2185,68.4012,25.4034,334.708,-0.00043507,-7.199e-05,0.0,0 STARLINK-3987,1 52699U 22053AV  22342.54820381 -.00007199  00000-0 -43507-3 0  9997,2 52699  53.2185  68.4012 0002500  25.4034 334.7080 15.08804567 32029,6917.989000000001,95.44,541.5830000000002,538.124,0.0
52699.0,STARLINK-3987,PAYLOAD,2022-12-08 14:44:43,15.08909243,0.0002365,53.2184,68.1034,38.1917,321.9242,0.0011112,0.00017475,0.0,0 STARLINK-3987,1 52699U 22053AV  22342.61439235  .00017475  00000-0  11112-2 0  9991,2 52699  53.2184  68.1034 0002365  38.1917 321.9242 15.08909243 32035,6917.669,95.433,541.17,537.898,0.0
52699.0,STARLINK-3987,PAYLOAD,2022-12-09 17:46:18,15.08848406,0.000219,53.2184,63.0501,41.3023,318.8135,-0.00027997,-4.742e-05,0.0,0 STARLINK-3987,1 52699U 22053AV  22343.74049555 -.00004742  00000-0 -27997-3 0  9992,2 52699  53.2184  63.0501 0002190  41.3023 318.8135 15.08848406 31777,6917.855,95.437,541.235,538.205,0.0
52699.0,STARLINK-3987,PAYLOAD,2022-12-10 11:15:35,15.08824927,0.0002605,53.2184,59.7757,29.231,330.8827,-0.00026426,-4.49e-05,0.0,0 STARLINK-3987,1 52699U 22053AV  22344.46915709 -.00004490  00000-0 -26426-3 0  9991,2 52699  53.2184  59.7757 0002605  29.2310 330.8827 15.08824927 31883,6917.926,95.439,541.594,537.989,0.0
52699.0,STARLINK-3987,PAYLOAD,2022-12-10 12:50:58,15.08825066,0.0002699,53.2179,59.4781,31.4864,328.6289,-0.00014655,-2.619e-05,0.0,0 STARLINK-3987,1 52699U 22053AV  22344.53539885 -.00002619  00000-0 -14655-3 0  9998,2 52699  53.2179  59.4781 0002699  31.4864 328.6289 15.08825066 32325,6917.926,95.438,541.658,537.924,0.0
52699.0,STARLINK-3987,PAYLOAD,2022-12-10 17:37:07,15.08828185,0.0002652,53.2172,58.5855,31.5381,328.5769,-3.0603000000000005e-05,-7.75e-06,0.0,0 STARLINK-3987,1 52699U 22053AV  22344.73411869 -.00000775  00000-0 -30603-4 0  9994,2 52699  53.2172  58.5855 0002652  31.5381 328.5769 15.08828185 32354,6917.917,95.438,541.616,537.947,0.0
52699.0,STARLINK-3987,PAYLOAD,2022-12-11 11:06:22,15.08853826,0.000274,53.2168,55.3147,32.2225,327.8934,0.001182,0.00018581,0.0,0 STARLINK-3987,1 52699U 22053AV  22345.46276364  .00018581  00000-0  11820-2 0  9994,2 52699  53.2168  55.3147 0002740  32.2225 327.8934 15.08853826 32032,6917.8380000000025,95.437,541.599,537.808,0.0
52699.0,STARLINK-3987,PAYLOAD,2022-12-11 12:41:45,15.0886083,0.0002756,53.2168,55.0174,32.2711,327.8449,0.0013872,0.00021872,0.0,0 STARLINK-3987,1 52699U 22053AV  22345.52900247  .00021872  00000-0  13872-2 0  9991,2 52699  53.2168  55.0174 0002756  32.2711 327.8449 15.08860830 32478,6917.816999999999,95.436,541.5880000000002,537.775,0.0
52699.0,STARLINK-3987,PAYLOAD,2022-12-11 15:52:31,15.08865752,0.0002849,53.2167,54.4231,31.9244,328.19199999999995,0.0013333,0.00021011,0.0,0 STARLINK-3987,1 52699U 22053AV  22345.66148062  .00021011  00000-0  13333-2 0  9992,2 52699  53.2167  54.4231 0002849  31.9244 328.1920 15.08865752 32492,6917.802,95.436,541.638,537.696,0.0
52699.0,STARLINK-3987,PAYLOAD,2022-12-12 09:21:46,15.08855585,0.0002791,53.2168,51.152,28.4345,331.6799,0.00092122,0.0001440999999999,0.0,0 STARLINK-3987,1 52699U 22053AV  22346.39011610  .00014410  00000-0  92122-3 0  9990,2 52699  53.2168  51.1520 0002791  28.4345 331.6799 15.08855585 32178,6917.833000000001,95.437,541.629,537.7669999999998,0.0
52699.0,STARLINK-3987,PAYLOAD,2022-12-12 10:57:09,15.08854303,0.0002828,53.2168,50.8546,28.2162,331.8983,0.00082224,0.00012827,0.0,0 STARLINK-3987,1 52699U 22053AV  22346.45635571  .00012827  00000-0  82224-3 0  9997,2 52699  53.2168  50.8546 0002828  28.2162 331.8983 15.08854303 32611,6917.837,95.437,541.658,537.745,0.0
52699.0,STARLINK-3987,PAYLOAD,2022-12-12 14:07:55,15.08859849,0.0002742,53.2167,50.2594,31.0152,329.1002,0.00049125,7.543e-05,0.0,0 STARLINK-3987,1 52699U 22053AV  22346.58883367  .00007543  00000-0  49125-3 0  9991,2 52699  53.2167  50.2594 0002742  31.0152 329.1002 15.08859849 32637,6917.82,95.436,541.582,537.788,0.0
52699.0,STARLINK-3987,PAYLOAD,2022-12-13 07:37:09,15.08854222,0.0002801,53.2171,46.9884,25.454,334.6589,0.00072649,0.00011298,0.0,0 STARLINK-3987,1 52699U 22053AV  22347.31747241  .00011298  00000-0  72649-3 0  9992,2 52699  53.2171  46.9884 0002801  25.4540 334.6589 15.08854222 32316,6917.837,95.437,541.64,537.764,0.0
